[{"OBJECT_NAME":"FLOCK 4BE-35","OBJECT_ID":"2024-149CU","EPOCH":"2026-03-06T04:58:22.772064","MEAN_MOTION":15.4288257,"ECCENTRICITY":0.00046657,"INCLINATION":97.3795,"RA_OF_ASC_NODE":148.4055,"ARG_OF_PERICENTER":269.8089,"MEAN_ANOMALY":90.2624,"EPHEMERIS_TYPE":0,"CLASSIFICATION_TYPE":"U","NORAD_CAT_ID":60558,"ELEMENT_SET_NO":999,"REV_AT_EPOCH":8646,"BSTAR":0.0021151284,"MEAN_MOTION_DOT":0.00093796,"MEAN_MOTION_DDOT":0},{"OBJECT_NAME":"FLOCK 4BE-5","OBJECT_ID":"2024-149CV","EPOCH":"2026-03-06T05:04:14.469312","MEAN_MOTION":15.36845185,"ECCENTRICITY":0.00025158,"INCLINATION":97.3885,"RA_OF_ASC_NODE":148.4576,"ARG_OF_PERICENTER":310.1882,"MEAN_ANOMALY":49.9142,"EPHEMERIS_TYPE":0,"CLASSIFICATION_TYPE":"U","NORAD_CAT_ID":60559,"ELEMENT_SET_NO":999,"REV_AT_EPOCH":8644,"BSTAR":0.00063229042,"MEAN_MOTION_DOT":0.00022732,"MEAN_MOTION_DDOT":0},{"OBJECT_NAME":"FLOCK 4BE-12","OBJECT_ID":"2024-149CW","EPOCH":"2026-03-06T05:39:35.090784","MEAN_MOTION":15.45824265,"ECCENTRICITY":0.00057573,"INCLINATION":97.3763,"RA_OF_ASC_NODE":149.1476,"ARG_OF_PERICENTER":272.3254,"MEAN_ANOMALY":87.7336,"EPHEMERIS_TYPE":0,"CLASSIFICATION_TYPE":"U","NORAD_CAT_ID":60560,"ELEMENT_SET_NO":999,"REV_AT_EPOCH":8653,"BSTAR":0.0021897383,"MEAN_MOTION_DOT":0.0010746,"MEAN_MOTION_DDOT":0},{"OBJECT_NAME":"FLOCK 4BE-3","OBJECT_ID":"2024-149CX","EPOCH":"2026-03-06T05:11:55.441824","MEAN_MOTION":15.38039693,"ECCENTRICITY":0.00031314,"INCLINATION":97.3747,"RA_OF_ASC_NODE":148.3867,"ARG_OF_PERICENTER":296.5072,"MEAN_ANOMALY":63.5851,"EPHEMERIS_TYPE":0,"CLASSIFICATION_TYPE":"U","NORAD_CAT_ID":60561,"ELEMENT_SET_NO":999,"REV_AT_EPOCH":8649,"BSTAR":0.00054311626,"MEAN_MOTION_DOT":0.00020277,"MEAN_MOTION_DDOT":0},{"OBJECT_NAME":"FLOCK 4BE-19","OBJECT_ID":"2024-149CZ","EPOCH":"2026-03-06T07:02:09.570912","MEAN_MOTION":15.40164585,"ECCENTRICITY":0.00031377,"INCLINATION":97.3783,"RA_OF_ASC_NODE":149.5555,"ARG_OF_PERICENTER":300.9273,"MEAN_ANOMALY":59.1665,"EPHEMERIS_TYPE":0,"CLASSIFICATION_TYPE":"U","NORAD_CAT_ID":60563,"ELEMENT_SET_NO":999,"REV_AT_EPOCH":8656,"BSTAR":0.00059500736,"MEAN_MOTION_DOT":0.00023831,"MEAN_MOTION_DDOT":0},{"OBJECT_NAME":"PELICAN-2","OBJECT_ID":"2025-009Y","EPOCH":"2026-03-06T05:13:53.185152","MEAN_MOTION":15.40330182,"ECCENTRICITY":0.00076386,"INCLINATION":97.4019,"RA_OF_ASC_NODE":155.4824,"ARG_OF_PERICENTER":217.309,"MEAN_ANOMALY":142.7627,"EPHEMERIS_TYPE":0,"CLASSIFICATION_TYPE":"U","NORAD_CAT_ID":62631,"ELEMENT_SET_NO":999,"REV_AT_EPOCH":6370,"BSTAR":0.0016406925,"MEAN_MOTION_DOT":0.0006664,"MEAN_MOTION_DDOT":0},{"OBJECT_NAME":"PELICAN-3","OBJECT_ID":"2025-188A","EPOCH":"2026-03-06T02:28:16.779072","MEAN_MOTION":15.40614124,"ECCENTRICITY":0.0003927,"INCLINATION":97.2226,"RA_OF_ASC_NODE":142.6913,"ARG_OF_PERICENTER":185.4103,"MEAN_ANOMALY":174.7102,"EPHEMERIS_TYPE":0,"CLASSIFICATION_TYPE":"U","NORAD_CAT_ID":65315,"ELEMENT_SET_NO":999,"REV_AT_EPOCH":2944,"BSTAR":0.0012741969,"MEAN_MOTION_DOT":0.00052087,"MEAN_MOTION_DDOT":0},{"OBJECT_NAME":"PELICAN-4","OBJECT_ID":"2025-188B","EPOCH":"2026-03-05T11:15:25.409376","MEAN_MOTION":15.40622405,"ECCENTRICITY":0.00034812,"INCLINATION":97.2316,"RA_OF_ASC_NODE":142.1564,"ARG_OF_PERICENTER":108.559,"MEAN_ANOMALY":251.6035,"EPHEMERIS_TYPE":0,"CLASSIFICATION_TYPE":"U","NORAD_CAT_ID":65316,"ELEMENT_SET_NO":999,"REV_AT_EPOCH":2934,"BSTAR":0.00022531044,"MEAN_MOTION_DOT":9.095e-5,"MEAN_MOTION_DDOT":0}]
