FLOCK 4BE-35            
1 60558U 24149CU  26065.20720801  .00093796  00000+0  21151-2 0  9998
2 60558  97.3795 148.4055 0004665 269.8089  90.2624 15.42882570 86465
FLOCK 4BE-5             
1 60559U 24149CV  26065.21127858  .00022732  00000+0  63229-3 0  9998
2 60559  97.3885 148.4576 0002515 310.1882  49.9142 15.36845185 86445
FLOCK 4BE-12            
1 60560U 24149CW  26065.23582281  .00107460  00000+0  21897-2 0  9993
2 60560  97.3763 149.1476 0005757 272.3254  87.7336 15.45824265 86533
FLOCK 4BE-3             
1 60561U 24149CX  26065.21661391  .00020277  00000+0  54312-3 0  9991
2 60561  97.3747 148.3867 0003131 296.5072  63.5851 15.38039693 86495
FLOCK 4BE-19            
1 60563U 24149CZ  26065.29316633  .00023831  00000+0  59501-3 0  9991
2 60563  97.3783 149.5555 0003137 300.9273  59.1665 15.40164585 86567
PELICAN-2               
1 62631U 25009Y   26065.21797668  .00066640  00000+0  16407-2 0  9990
2 62631  97.4019 155.4824 0007638 217.3090 142.7627 15.40330182 63707
PELICAN-3               
1 65315U 25188A   26065.10297198  .00052087  00000+0  12742-2 0  9999
2 65315  97.2226 142.6913 0003927 185.4103 174.7102 15.40614124 29448
PELICAN-4               
1 65316U 25188B   26064.46904409  .00009095  00000+0  22531-3 0  9997
2 65316  97.2316 142.1564 0003481 108.5590 251.6035 15.40622405 29347
